STARLINK-37020          
1 68144U 26049C   26087.90725482  .00118322  00000+0  60907-3 0  9995
2 68144  97.2844 108.1031 0000915 118.5602 241.5759 15.80853931  2447
