{
  "norad_id": 68144,
  "name": "STARLINK-37020",
  "history": [
    {
      "epoch": "2026-03-28T21:46:26.816448Z",
      "apogee_km": 328.6385152062976,
      "perigee_km": 327.4106170235409,
      "latitude_deg": 5.9426614260770094e-05,
      "longitude_deg": -44.82960983838415,
      "height_km": 331.4928139825847,
      "semi_major_axis_km": 6706.161566114919,
      "eccentricity": 9.155e-05,
      "inclination_deg": 97.2844,
      "raan_deg": 108.1031,
      "arg_perigee_deg": 118.5602,
      "mean_anomaly_deg": 241.5759,
      "mean_motion_rev_day": 15.80853931
    }
  ]
}